[{"OBJECT_NAME":"STARLINK-3661","OBJECT_ID":"2022-029AT","EPOCH":"2026-03-09T06:45:10.080288","MEAN_MOTION":15.08838204,"ECCENTRICITY":0.00014301,"INCLINATION":53.2179,"RA_OF_ASC_NODE":70.9538,"ARG_OF_PERICENTER":93.302,"MEAN_ANOMALY":266.8136,"EPHEMERIS_TYPE":0,"CLASSIFICATION_TYPE":"U","NORAD_CAT_ID":52129,"ELEMENT_SET_NO":999,"REV_AT_EPOCH":22087,"BSTAR":-4.357367e-6,"MEAN_MOTION_DOT":-3.57e-6,"MEAN_MOTION_DDOT":0},{"OBJECT_NAME":"SL-6 R\/B(2)","OBJECT_ID":"1990-055D","EPOCH":"2026-03-09T21:41:59.551872","MEAN_MOTION":15.03595553,"ECCENTRICITY":0.00247741,"INCLINATION":62.7825,"RA_OF_ASC_NODE":253.121,"ARG_OF_PERICENTER":347.1508,"MEAN_ANOMALY":12.8957,"EPHEMERIS_TYPE":0,"CLASSIFICATION_TYPE":"U","NORAD_CAT_ID":20666,"ELEMENT_SET_NO":999,"REV_AT_EPOCH":93822,"BSTAR":0.00020900577,"MEAN_MOTION_DOT":2.688e-5,"MEAN_MOTION_DDOT":0}]
